{"type":"FeatureCollection","features":[{"type":"Feature","geometry":{"type":"Point","coordinates":[-2.0138252347059673,7.087820973627373]},"properties":{"type":"","category":"demand_point","weight_in_category":1,"facility_id":34}},{"type":"Feature","geometry":{"type":"Point","coordinates":[-2.0102065430058387,7.079936657231173]},"properties":{"type":"","category":"demand_point","weight_in_category":1,"facility_id":47}},{"type":"Feature","geometry":{"type":"Point","coordinates":[-1.9989974090853124,7.083002795826658]},"properties":{"type":"","category":"demand_point","weight_in_category":1,"facility_id":35}},{"type":"Feature","geometry":{"type":"Point","coordinates":[-1.970136114735691,7.093252323602712]},"properties":{"type":"","category":"demand_point","weight_in_category":1,"facility_id":17}},{"type":"Feature","geometry":{"type":"Point","coordinates":[-2.02062130306559,7.099296798748014]},"properties":{"type":"","category":"demand_point","weight_in_category":1,"facility_id":48}},{"type":"Feature","geometry":{"type":"Point","coordinates":[-1.9838165416136024,7.1010487995842055]},"properties":{"type":"","category":"demand_point","weight_in_category":1,"facility_id":16}},{"type":"Feature","geometry":{"type":"Point","coordinates":[-2.018414761800595,7.101224007721839]},"properties":{"type":"","category":"demand_point","weight_in_category":1,"facility_id":31}},{"type":"Feature","geometry":{"type":"Point","coordinates":[-2.0048226081122626,7.1016619940897385]},"properties":{"type":"","category":"demand_point","weight_in_category":1,"facility_id":36}},{"type":"Feature","geometry":{"type":"Point","coordinates":[-2.0231808692125535,7.107268378115208]},"properties":{"type":"","category":"demand_point","weight_in_category":1,"facility_id":38}},{"type":"Feature","geometry":{"type":"Point","coordinates":[-2.0153256413615925,7.113225067248564]},"properties":{"type":"","category":"demand_point","weight_in_category":1,"facility_id":37}},{"type":"Feature","geometry":{"type":"Point","coordinates":[-1.9892887157585843,7.122159964450205]},"properties":{"type":"","category":"demand_point","weight_in_category":1,"facility_id":18}},{"type":"Feature","geometry":{"type":"Point","coordinates":[-2.0041165244101524,7.115064624825351]},"properties":{"type":"","category":"demand_point","weight_in_category":1,"facility_id":43}},{"type":"Feature","geometry":{"type":"Point","coordinates":[-2.024593019647687,7.099033993836571]},"properties":{"type":"","category":"demand_point","weight_in_category":1,"facility_id":32}},{"type":"Feature","geometry":{"type":"Point","coordinates":[-2.0244009625332526,7.089519661584831]},"properties":{"type":"","category":"demand_point","weight_in_category":1,"facility_id":52}},{"type":"Feature","geometry":{"type":"Point","coordinates":[-2.0243450816239754,7.0873009873500195]},"properties":{"type":"","category":"demand_point","weight_in_category":1,"facility_id":51}},{"type":"Feature","geometry":{"type":"Point","coordinates":[-2.022916083581991,7.090711864549121]},"properties":{"type":"","category":"demand_point","weight_in_category":1,"facility_id":30}},{"type":"Feature","geometry":{"type":"Point","coordinates":[-2.02229827306946,7.097632370720746]},"properties":{"type":"","category":"demand_point","weight_in_category":1,"facility_id":33}},{"type":"Feature","geometry":{"type":"Point","coordinates":[-2.0189443330617207,7.08265238246257]},"properties":{"type":"","category":"demand_point","weight_in_category":1,"facility_id":46}},{"type":"Feature","geometry":{"type":"Point","coordinates":[-2.025686298656466,7.085470565066515]},"properties":{"type":"","category":"demand_point","weight_in_category":1,"facility_id":53}},{"type":"Feature","geometry":{"type":"Point","coordinates":[-2.0165612963248285,7.074154755837682]},"properties":{"type":"","category":"demand_point","weight_in_category":1,"facility_id":13}},{"type":"Feature","geometry":{"type":"Point","coordinates":[-2.0230926129920617,7.0483104483465695]},"properties":{"type":"","category":"demand_point","weight_in_category":1,"facility_id":20}},{"type":"Feature","geometry":{"type":"Point","coordinates":[-1.9871704646522543,7.075030796461661]},"properties":{"type":"","category":"demand_point","weight_in_category":1,"facility_id":41}},{"type":"Feature","geometry":{"type":"Point","coordinates":[-2.000409559520445,7.058998772809616]},"properties":{"type":"","category":"demand_point","weight_in_category":1,"facility_id":42}},{"type":"Feature","geometry":{"type":"Point","coordinates":[-2.0143547550598333,7.079761466260493]},"properties":{"type":"","category":"demand_point","weight_in_category":1,"facility_id":15}},{"type":"Feature","geometry":{"type":"Point","coordinates":[-2.0252108640983915,7.0645180561415515]},"properties":{"type":"","category":"demand_point","weight_in_category":1,"facility_id":11}},{"type":"Feature","geometry":{"type":"Point","coordinates":[-2.0199152193634804,7.043929925094176]},"properties":{"type":"","category":"demand_point","weight_in_category":1,"facility_id":19}},{"type":"Feature","geometry":{"type":"Point","coordinates":[-2.018591274241579,7.070650517770218]},"properties":{"type":"","category":"demand_point","weight_in_category":1,"facility_id":12}},{"type":"Feature","geometry":{"type":"Point","coordinates":[-2.025387393508462,7.092639109470014]},"properties":{"type":"","category":"demand_point","weight_in_category":1,"facility_id":29}},{"type":"Feature","geometry":{"type":"Point","coordinates":[-2.0758140743896543,7.121134736144043]},"properties":{"type":"","category":"demand_point","weight_in_category":1,"facility_id":1}},{"type":"Feature","geometry":{"type":"Point","coordinates":[-2.034036944312939,7.092989515239779]},"properties":{"type":"","category":"demand_point","weight_in_category":1,"facility_id":27}},{"type":"Feature","geometry":{"type":"Point","coordinates":[-2.043392595788612,7.092901918032936]},"properties":{"type":"","category":"demand_point","weight_in_category":1,"facility_id":39}},{"type":"Feature","geometry":{"type":"Point","coordinates":[-2.04983562229718,7.098420795827764]},"properties":{"type":"","category":"demand_point","weight_in_category":1,"facility_id":40}},{"type":"Feature","geometry":{"type":"Point","coordinates":[-2.064972608543962,7.107989786843518]},"properties":{"type":"","category":"demand_point","weight_in_category":1,"facility_id":3}},{"type":"Feature","geometry":{"type":"Point","coordinates":[-2.066537359957824,7.11314797996917]},"properties":{"type":"","category":"demand_point","weight_in_category":1,"facility_id":2}},{"type":"Feature","geometry":{"type":"Point","coordinates":[-2.0299769545412634,7.092639109470014]},"properties":{"type":"","category":"demand_point","weight_in_category":1,"facility_id":28}},{"type":"Feature","geometry":{"type":"Point","coordinates":[-2.027152602763737,7.071789402479993]},"properties":{"type":"","category":"demand_point","weight_in_category":1,"facility_id":14}},{"type":"Feature","geometry":{"type":"Point","coordinates":[-2.062280394211856,7.077571350345309]},"properties":{"type":"","category":"demand_point","weight_in_category":1,"facility_id":25}},{"type":"Feature","geometry":{"type":"Point","coordinates":[-2.0299769545412634,7.079235825577825]},"properties":{"type":"","category":"demand_point","weight_in_category":1,"facility_id":44}},{"type":"Feature","geometry":{"type":"Point","coordinates":[-2.028564787137044,7.081776347887384]},"properties":{"type":"","category":"demand_point","weight_in_category":1,"facility_id":45}},{"type":"Feature","geometry":{"type":"Point","coordinates":[-2.0304565640192807,7.087898592066821]},"properties":{"type":"","category":"hospital","weight_in_category":1,"facility_id":49}},{"type":"Feature","geometry":{"type":"Point","coordinates":[-2.0349195574251193,7.086857350517818]},"properties":{"type":"","category":"demand_point","weight_in_category":1,"facility_id":24}},{"type":"Feature","geometry":{"type":"Point","coordinates":[-2.067046484654728,7.080549888265168]},"properties":{"type":"","category":"demand_point","weight_in_category":1,"facility_id":26}},{"type":"Feature","geometry":{"type":"Point","coordinates":[-2.0308595337152706,7.086331726345293]},"properties":{"type":"","category":"demand_point","weight_in_category":1,"facility_id":23}},{"type":"Feature","geometry":{"type":"Point","coordinates":[-2.026859856844731,7.08685725122109]},"properties":{"type":"","category":"demand_point","weight_in_category":1,"facility_id":50}},{"type":"Feature","geometry":{"type":"Point","coordinates":[-2.0395973407402397,7.051026350958836]},"properties":{"type":"","category":"demand_point","weight_in_category":1,"facility_id":5}},{"type":"Feature","geometry":{"type":"Point","coordinates":[-2.0358903928196193,7.055406823961107]},"properties":{"type":"","category":"demand_point","weight_in_category":1,"facility_id":8}},{"type":"Feature","geometry":{"type":"Point","coordinates":[-2.0326247599396328,7.062941139205009]},"properties":{"type":"","category":"demand_point","weight_in_category":1,"facility_id":9}},{"type":"Feature","geometry":{"type":"Point","coordinates":[-2.0268878171331743,7.046207806394193]},"properties":{"type":"","category":"demand_point","weight_in_category":1,"facility_id":22}},{"type":"Feature","geometry":{"type":"Point","coordinates":[-2.0380969340846145,7.058297917817541]},"properties":{"type":"","category":"demand_point","weight_in_category":1,"facility_id":7}},{"type":"Feature","geometry":{"type":"Point","coordinates":[-2.0444517043726904,7.057158999873224]},"properties":{"type":"","category":"demand_point","weight_in_category":1,"facility_id":6}},{"type":"Feature","geometry":{"type":"Point","coordinates":[-2.0551312500630043,7.053041383118824]},"properties":{"type":"","category":"demand_point","weight_in_category":1,"facility_id":4}},{"type":"Feature","geometry":{"type":"Point","coordinates":[-2.029270853870067,7.065043713575818]},"properties":{"type":"","category":"demand_point","weight_in_category":1,"facility_id":10}}]}