{
  "type": "FeatureCollection",
  "name": "taxi_ranks",
  "crs": {
    "type": "name",
    "properties": {
      "name": "urn:ogc:def:crs:OGC:1.3:CRS84"
    }
  },
  "features": [
    {
      "type": "Feature",
      "properties": {
        "name": "Dansoman Last Stop",
        "address": "Dansoman High St, Accra",
        "id": 1
      },
      "geometry": {
        "type": "Point",
        "coordinates": [
          -0.2652194,
          5.5301625
        ]
      }
    },
    {
      "type": "Feature",
      "properties": {
        "name": "Ebenezer Down Taxi Station",
        "address": "GPJM+8QP, Bamboo St, Accra",
        "id": 2
      },
      "geometry": {
        "type": "Point",
        "coordinates": [
          -0.265538,
          5.5308485
        ]
      }
    },
    {
      "type": "Feature",
      "properties": {
        "name": "Agege Bus stop",
        "address": "Old Dansoman High St, Accra",
        "id": 3
      },
      "geometry": {
        "type": "Point",
        "coordinates": [
          -0.2552879,
          5.5318126
        ]
      }
    },
    {
      "type": "Feature",
      "properties": {
        "name": "3D Luxury Carpet",
        "address": "Taxi rank, Rawlings Park, Zongo Lane, Gate 1, Accra",
        "id": 4
      },
      "geometry": {
        "type": "Point",
        "coordinates": [
          -0.2103445,
          5.5447565
        ]
      }
    },
    {
      "type": "Feature",
      "properties": {
        "name": "Maame nkran taxi station",
        "address": "HP2W+FX6, Accra",
        "id": 5
      },
      "geometry": {
        "type": "Point",
        "coordinates": [
          -0.2526163,
          5.5511744
        ]
      }
    },
    {
      "type": "Feature",
      "properties": {
        "name": "Sukura Trotro Station",
        "address": "Woowoti St, Accra",
        "id": 6
      },
      "geometry": {
        "type": "Point",
        "coordinates": [
          -0.2493435,
          5.5505735
        ]
      }
    },
    {
      "type": "Feature",
      "properties": {
        "name": "ALAJI KPEDZE IHKLASS CAFE",
        "address": "HQ32+6G9, Bomsam Abla St, Accra",
        "id": 7
      },
      "geometry": {
        "type": "Point",
        "coordinates": [
          -0.2487037,
          5.5530281
        ]
      }
    },
    {
      "type": "Feature",
      "properties": {
        "name": "Taxi Rank",
        "address": "GQWQ+VQ8, Kwame Nkrumah Ave, Accra",
        "id": 8
      },
      "geometry": {
        "type": "Point",
        "coordinates": [
          -0.2105504,
          5.5471748
        ]
      }
    },
    {
      "type": "Feature",
      "properties": {
        "name": "Ministries Taxi Rank",
        "address": "HR23+89G, Valco Dr, Accra",
        "id": 9
      },
      "geometry": {
        "type": "Point",
        "coordinates": [
          -0.1965372,
          5.5508094
        ]
      }
    },
    {
      "type": "Feature",
      "properties": {
        "name": "Freddiman Services",
        "address": "Opposite Aplaku Taxi Rank, GS-585-6844, Kasoa Old Barrier, Accra",
        "id": 10
      },
      "geometry": {
        "type": "Point",
        "coordinates": [
          -0.2321993,
          5.5579328
        ]
      }
    },
    {
      "type": "Feature",
      "properties": {
        "name": "Kaneshie Takoradi VIP Station",
        "address": "HQ87+2FF, Ayikai St, Accra",
        "id": 11
      },
      "geometry": {
        "type": "Point",
        "coordinates": [
          -0.23632,
          5.5650439
        ]
      }
    },
    {
      "type": "Feature",
      "properties": {
        "name": "Dobro Gonno KKD Taxi rank Amasaman",
        "address": "P.o box 14559, Accra",
        "id": 12
      },
      "geometry": {
        "type": "Point",
        "coordinates": [
          -0.1974306,
          5.5592846
        ]
      }
    },
    {
      "type": "Feature",
      "properties": {
        "name": "Solid Crest Restaurant",
        "address": "Penny near my brother taxi rank, Accra",
        "id": 13
      },
      "geometry": {
        "type": "Point",
        "coordinates": [
          -0.1974306,
          5.5592846
        ]
      }
    },
    {
      "type": "Feature",
      "properties": {
        "name": "Ako Adjei Taxi Rank",
        "address": "HR5G+7VX, Accra",
        "id": 14
      },
      "geometry": {
        "type": "Point",
        "coordinates": [
          -0.1727748,
          5.55823
        ]
      }
    },
    {
      "type": "Feature",
      "properties": {
        "name": "Taxi Stand",
        "address": "HR6R+2C2, Accra",
        "id": 15
      },
      "geometry": {
        "type": "Point",
        "coordinates": [
          -0.159004,
          5.5600411
        ]
      }
    },
    {
      "type": "Feature",
      "properties": {
        "name": "ID SAROFO PLUMBING, SAKAMAM",
        "address": "BLUE LAGOON, TAXI RANK, Hyde park, SAKAMAM",
        "id": 16
      },
      "geometry": {
        "type": "Point",
        "coordinates": [
          -0.2722501,
          5.5711726
        ]
      }
    },
    {
      "type": "Feature",
      "properties": {
        "name": "HANSONIC JUNCTION",
        "address": "HPFW+PXV hansonic Taxi Rank, Dansoman Rd, Accra",
        "id": 17
      },
      "geometry": {
        "type": "Point",
        "coordinates": [
          -0.2525893,
          5.574369
        ]
      }
    },
    {
      "type": "Feature",
      "properties": {
        "name": "Circle UTC Taxi Station",
        "address": "HQ9M+HJM, Accra",
        "id": 18
      },
      "geometry": {
        "type": "Point",
        "coordinates": [
          -0.2159571,
          5.5689723
        ]
      }
    },
    {
      "type": "Feature",
      "properties": {
        "name": "Circle VIP Station",
        "address": "Ring Road West, Accra",
        "id": 19
      },
      "geometry": {
        "type": "Point",
        "coordinates": [
          -0.2194335,
          5.5684557
        ]
      }
    },
    {
      "type": "Feature",
      "properties": {
        "name": "IPMC College Of Technology Circle Branch",
        "address": "HQ9P+34C, Accra",
        "id": 20
      },
      "geometry": {
        "type": "Point",
        "coordinates": [
          -0.2147202,
          5.5676852
        ]
      }
    },
    {
      "type": "Feature",
      "properties": {
        "name": "Taxi Rank",
        "address": "HQ9P+VQR, Kojo Thompson Rd, Accra",
        "id": 21
      },
      "geometry": {
        "type": "Point",
        "coordinates": [
          -0.2130986,
          5.569739
        ]
      }
    },
    {
      "type": "Feature",
      "properties": {
        "name": "Rigde Hospital GIJ Taxi Station, Circle",
        "address": "HQ9P+G2R, Kwame Nkrumah Ave, Accra",
        "id": 22
      },
      "geometry": {
        "type": "Point",
        "coordinates": [
          -0.2149817,
          5.5688561
        ]
      }
    },
    {
      "type": "Feature",
      "properties": {
        "name": "CUBE CARE",
        "address": "Workers College Taxi Rank Behind Ghana commercial bank Circle",
        "id": 23
      },
      "geometry": {
        "type": "Point",
        "coordinates": [
          -0.21616,
          5.569034
        ]
      }
    },
    {
      "type": "Feature",
      "properties": {
        "name": "Trotro Stop",
        "address": "HRFC+F6W, Cantonments Rd, Accra",
        "id": 24
      },
      "geometry": {
        "type": "Point",
        "coordinates": [
          -0.1794237,
          5.5737358
        ]
      }
    },
    {
      "type": "Feature",
      "properties": {
        "name": "Bubiashie Taxi Rank",
        "address": "HQJ6+286, Agbon Boi St, Accra",
        "id": 25
      },
      "geometry": {
        "type": "Point",
        "coordinates": [
          -0.2392232,
          5.580041
        ]
      }
    },
    {
      "type": "Feature",
      "properties": {
        "name": "The Lunch Hour Restaurant",
        "address": "Bubiashie, Taxi Rank, Agbon Boi St, Accra",
        "id": 26
      },
      "geometry": {
        "type": "Point",
        "coordinates": [
          -0.2400217,
          5.580591
        ]
      }
    },
    {
      "type": "Feature",
      "properties": {
        "name": "Perez Chapel International The Tabernacle Bubuashie",
        "address": "HQJ5+FWW Taxi Rank, Accra",
        "id": 27
      },
      "geometry": {
        "type": "Point",
        "coordinates": [
          -0.2401791,
          5.5812262
        ]
      }
    },
    {
      "type": "Feature",
      "properties": {
        "name": "Office Of The Nima-Maamobi Taxi Rank",
        "address": "HQMR+38C, Senya Brekum Rd, Accra",
        "id": 28
      },
      "geometry": {
        "type": "Point",
        "coordinates": [
          -0.209233,
          5.5827046
        ]
      }
    },
    {
      "type": "Feature",
      "properties": {
        "name": "Masalachi Bus Stop",
        "address": "HRJ2+8XP Tantra Hill, Yellow House Street, Accra",
        "id": 29
      },
      "geometry": {
        "type": "Point",
        "coordinates": [
          -0.1975313,
          5.5808296
        ]
      }
    },
    {
      "type": "Feature",
      "properties": {
        "name": "Lifetime Enterprise",
        "address": "Adj Kwesi Mintim Taxi Rank Takoradi",
        "id": 30
      },
      "geometry": {
        "type": "Point",
        "coordinates": [
          -0.1784836,
          5.5767652
        ]
      }
    },
    {
      "type": "Feature",
      "properties": {
        "name": "J. A. Agos",
        "address": "Market Circle opp Sekondi Taxi Rank, Accra",
        "id": 31
      },
      "geometry": {
        "type": "Point",
        "coordinates": [
          -0.1784836,
          5.5767652
        ]
      }
    },
    {
      "type": "Feature",
      "properties": {
        "name": "Lascala Market",
        "address": "Accra",
        "id": 32
      },
      "geometry": {
        "type": "Point",
        "coordinates": [
          -0.1110649,
          5.5800661
        ]
      }
    },
    {
      "type": "Feature",
      "properties": {
        "name": "CANVAS FRAMES | CLASSIC FRAME",
        "address": "Malik Taxi Rank, Accra",
        "id": 33
      },
      "geometry": {
        "type": "Point",
        "coordinates": [
          -0.1048228,
          5.5815007
        ]
      }
    },
    {
      "type": "Feature",
      "properties": {
        "name": "Teshie Mobil",
        "address": "Accra",
        "id": 34
      },
      "geometry": {
        "type": "Point",
        "coordinates": [
          -0.104174,
          5.5833853
        ]
      }
    },
    {
      "type": "Feature",
      "properties": {
        "name": "A-Lang Taxi Station",
        "address": "Kwashieman",
        "id": 35
      },
      "geometry": {
        "type": "Point",
        "coordinates": [
          -0.26852,
          5.5922029
        ]
      }
    },
    {
      "type": "Feature",
      "properties": {
        "name": "Alajo - Kotobabi Taxi Rank",
        "address": "HQQJ+6MQ, Nsawam Road, Nsawam Road, Accra",
        "id": 36
      },
      "geometry": {
        "type": "Point",
        "coordinates": [
          -0.2182762,
          5.5880889
        ]
      }
    },
    {
      "type": "Feature",
      "properties": {
        "name": "Jo Network Ltd",
        "address": "HQVV+VG5, Ministries Taxi Rank, Opposite Original Pay All Head Office, Accra",
        "id": 37
      },
      "geometry": {
        "type": "Point",
        "coordinates": [
          -0.2061385,
          5.5946468
        ]
      }
    },
    {
      "type": "Feature",
      "properties": {
        "name": "37 Taxi rank",
        "address": "HRR9+CGG, Liberation Road, Accra",
        "id": 38
      },
      "geometry": {
        "type": "Point",
        "coordinates": [
          -0.1811751,
          5.5910721
        ]
      }
    },
    {
      "type": "Feature",
      "properties": {
        "name": "Cab to Tema",
        "address": "59 Giffard Rd, Accra",
        "id": 39
      },
      "geometry": {
        "type": "Point",
        "coordinates": [
          -0.1800636,
          5.58894
        ]
      }
    },
    {
      "type": "Feature",
      "properties": {
        "name": "Highly Exalted Co. Ltd.",
        "address": "Opp. Achimota Taxi Rank Haatso, Accra",
        "id": 40
      },
      "geometry": {
        "type": "Point",
        "coordinates": [
          -0.1784836,
          5.5767652
        ]
      }
    },
    {
      "type": "Feature",
      "properties": {
        "name": "Demo Taxi Rank",
        "address": "HVPC+XWV, Unnamed Road, Accra",
        "id": 41
      },
      "geometry": {
        "type": "Point",
        "coordinates": [
          -0.1277128,
          5.5874875
        ]
      }
    },
    {
      "type": "Feature",
      "properties": {
        "name": "Teshie Demo Taxi Station",
        "address": "Accra",
        "id": 42
      },
      "geometry": {
        "type": "Point",
        "coordinates": [
          -0.1249803,
          5.5855129
        ]
      }
    },
    {
      "type": "Feature",
      "properties": {
        "name": "Camp 2 taxi station",
        "address": "Camp 2 Taxi Station, Accra",
        "id": 43
      },
      "geometry": {
        "type": "Point",
        "coordinates": [
          -0.1208468,
          5.5925659
        ]
      }
    },
    {
      "type": "Feature",
      "properties": {
        "name": "Teshie Demo",
        "address": "HVPF+JP8, Accra",
        "id": 44
      },
      "geometry": {
        "type": "Point",
        "coordinates": [
          -0.1253646,
          5.5868203
        ]
      }
    },
    {
      "type": "Feature",
      "properties": {
        "name": "Hunny's gift makeup & Beauty Hub",
        "address": "Teshie camp 2 taxi rank last stop",
        "id": 45
      },
      "geometry": {
        "type": "Point",
        "coordinates": [
          -0.1230231,
          5.593349
        ]
      }
    },
    {
      "type": "Feature",
      "properties": {
        "name": "OSMOSES GRAPHIX",
        "address": "THEMIS STREET, First Jct",
        "id": 46
      },
      "geometry": {
        "type": "Point",
        "coordinates": [
          -0.0984585,
          5.5881223
        ]
      }
    },
    {
      "type": "Feature",
      "properties": {
        "name": "Brigade Taxi Rank",
        "address": "HWV6+JC2, Accra",
        "id": 47
      },
      "geometry": {
        "type": "Point",
        "coordinates": [
          -0.088985,
          5.594006
        ]
      }
    },
    {
      "type": "Feature",
      "properties": {
        "name": "Flobri trading ventures",
        "address": "Brigade taxi rank GZ-002-2008, Nungua",
        "id": 48
      },
      "geometry": {
        "type": "Point",
        "coordinates": [
          -0.0887427,
          5.5937467
        ]
      }
    },
    {
      "type": "Feature",
      "properties": {
        "name": "ENSO NYAME YE LOCKSMITH",
        "address": "brigade taxi rank",
        "id": 49
      },
      "geometry": {
        "type": "Point",
        "coordinates": [
          -0.0890687,
          5.5939411
        ]
      }
    },
    {
      "type": "Feature",
      "properties": {
        "name": "P.O.K footwear",
        "address": "brigade taxi rank nungua",
        "id": 50
      },
      "geometry": {
        "type": "Point",
        "coordinates": [
          -0.0890782,
          5.5939573
        ]
      }
    },
    {
      "type": "Feature",
      "properties": {
        "name": "Hong Kong police station taxi rank",
        "address": "HPXP+6JW, Hong Kong Bus Stop, Nii Adaman St, Accra",
        "id": 51
      },
      "geometry": {
        "type": "Point",
        "coordinates": [
          -0.2634117,
          5.5981117
        ]
      }
    },
    {
      "type": "Feature",
      "properties": {
        "name": "Hongkong Police station Taxi Rank",
        "address": "Accra",
        "id": 52
      },
      "geometry": {
        "type": "Point",
        "coordinates": [
          -0.2634271,
          5.5981142
        ]
      }
    },
    {
      "type": "Feature",
      "properties": {
        "name": "Kwashiman Hongkong taxi rank Yellow building",
        "address": "n 1 Nii Adaman St, Accra",
        "id": 53
      },
      "geometry": {
        "type": "Point",
        "coordinates": [
          -0.2633846,
          5.5978127
        ]
      }
    },
    {
      "type": "Feature",
      "properties": {
        "name": "Taxi rank",
        "address": "JQ32+7VW, Accra",
        "id": 54
      },
      "geometry": {
        "type": "Point",
        "coordinates": [
          -0.2478089,
          5.6032253
        ]
      }
    },
    {
      "type": "Feature",
      "properties": {
        "name": "K. Zorre PropertiesLtd",
        "address": "Abelemkpe taxi rank, Acrca",
        "id": 55
      },
      "geometry": {
        "type": "Point",
        "coordinates": [
          -0.2210292,
          5.6029007
        ]
      }
    },
    {
      "type": "Feature",
      "properties": {
        "name": "El Shaddia Enterprise",
        "address": "Taxi Rank, Accra",
        "id": 56
      },
      "geometry": {
        "type": "Point",
        "coordinates": [
          -0.216704,
          5.5956573
        ]
      }
    },
    {
      "type": "Feature",
      "properties": {
        "name": "ShoeKama",
        "address": "Taxi Rank, 45 Onyankle St, Accra",
        "id": 57
      },
      "geometry": {
        "type": "Point",
        "coordinates": [
          -0.2169007,
          5.604507
        ]
      }
    },
    {
      "type": "Feature",
      "properties": {
        "name": "Lucky Generation Depot",
        "address": "JR24+PFQ, Madina Taxi Rank Old Road, Accra",
        "id": 58
      },
      "geometry": {
        "type": "Point",
        "coordinates": [
          -0.1937282,
          5.6018379
        ]
      }
    },
    {
      "type": "Feature",
      "properties": {
        "name": "Samaska Printing Press",
        "address": "near Nima Taxi Rank, New Town",
        "id": 59
      },
      "geometry": {
        "type": "Point",
        "coordinates": [
          -0.1869579,
          5.6037379
        ]
      }
    },
    {
      "type": "Feature",
      "properties": {
        "name": "Kwasibu Taxi Rank",
        "address": "JR37+F6M, Accra",
        "id": 60
      },
      "geometry": {
        "type": "Point",
        "coordinates": [
          -0.1869644,
          5.6037168
        ]
      }
    },
    {
      "type": "Feature",
      "properties": {
        "name": "Friendly Network",
        "address": "100 Met Off Madina Old Road Madina Taxi Rank",
        "id": 61
      },
      "geometry": {
        "type": "Point",
        "coordinates": [
          -0.1869579,
          5.6037379
        ]
      }
    },
    {
      "type": "Feature",
      "properties": {
        "name": "Golden Groceries Enterprise",
        "address": "Weija old barrier taxi rank",
        "id": 62
      },
      "geometry": {
        "type": "Point",
        "coordinates": [
          -0.1869579,
          5.6037379
        ]
      }
    },
    {
      "type": "Feature",
      "properties": {
        "name": "Taxi rank",
        "address": "HRWR+MQV, Unnamed Road, Accra",
        "id": 63
      },
      "geometry": {
        "type": "Point",
        "coordinates": [
          -0.1580924,
          5.5967473
        ]
      }
    },
    {
      "type": "Feature",
      "properties": {
        "name": "Tebibiano Taxi Station",
        "address": "HVXF+46M, Accra",
        "id": 64
      },
      "geometry": {
        "type": "Point",
        "coordinates": [
          -0.127015,
          5.5974527
        ]
      }
    },
    {
      "type": "Feature",
      "properties": {
        "name": "Lapaz Taxi Station",
        "address": "JQ53+776, Lapaz",
        "id": 65
      },
      "geometry": {
        "type": "Point",
        "coordinates": [
          -0.2468544,
          5.6081579
        ]
      }
    },
    {
      "type": "Feature",
      "properties": {
        "name": "De-Lead International Travel Services",
        "address": "Taxi Rank, Akweteyman",
        "id": 66
      },
      "geometry": {
        "type": "Point",
        "coordinates": [
          -0.2399169,
          5.6131185
        ]
      }
    },
    {
      "type": "Feature",
      "properties": {
        "name": "Abelenkpe Taxi Rank",
        "address": "JQ4J+QV8, Manhean Loop Rd, Accra",
        "id": 67
      },
      "geometry": {
        "type": "Point",
        "coordinates": [
          -0.2177904,
          5.6069036
        ]
      }
    },
    {
      "type": "Feature",
      "properties": {
        "name": "Madlamp Soccer Academy",
        "address": "taxi rank, Accra",
        "id": 68
      },
      "geometry": {
        "type": "Point",
        "coordinates": [
          -0.2168217,
          5.6057402
        ]
      }
    },
    {
      "type": "Feature",
      "properties": {
        "name": "BasicNeeds-Ghana (Accra Office)",
        "address": "Taxi Rank, 15th, Alhaji Sulley Rd, Accra",
        "id": 69
      },
      "geometry": {
        "type": "Point",
        "coordinates": [
          -0.2172487,
          5.6067145
        ]
      }
    },
    {
      "type": "Feature",
      "properties": {
        "name": "Airport Taxi Stand",
        "address": "JR5G+6XG, Airport Rd, Accra",
        "id": 70
      },
      "geometry": {
        "type": "Point",
        "coordinates": [
          -0.1725446,
          5.6080725
        ]
      }
    },
    {
      "type": "Feature",
      "properties": {
        "name": "Alpha Exporters",
        "address": "Kasoa, 6/7 Taxi Rank New Bentinor, Accra",
        "id": 71
      },
      "geometry": {
        "type": "Point",
        "coordinates": [
          -0.186964,
          5.6037003
        ]
      }
    },
    {
      "type": "Feature",
      "properties": {
        "name": "Golden KanRich Enterprise",
        "address": "JV69+VW8 Penny taxi station, Accra",
        "id": 72
      },
      "geometry": {
        "type": "Point",
        "coordinates": [
          -0.130913,
          5.6083698
        ]
      }
    },
    {
      "type": "Feature",
      "properties": {
        "name": "Rekies cake explore",
        "address": "Penny taxi Rank Teshie penny",
        "id": 73
      },
      "geometry": {
        "type": "Point",
        "coordinates": [
          -0.1292723,
          5.6103858
        ]
      }
    },
    {
      "type": "Feature",
      "properties": {
        "name": "Tsui Bleoo Taxi Station",
        "address": "JV3P+G2Q, Tsui Bleoo Rd, Accra",
        "id": 74
      },
      "geometry": {
        "type": "Point",
        "coordinates": [
          -0.1159184,
          5.6061686
        ]
      }
    },
    {
      "type": "Feature",
      "properties": {
        "name": "GN Bank Tsui Bleoo",
        "address": "JV4M+FHV to the Taxi Rank, Tsui Bleoo Rd, Accra",
        "id": 75
      },
      "geometry": {
        "type": "Point",
        "coordinates": [
          -0.1161116,
          5.6062158
        ]
      }
    },
    {
      "type": "Feature",
      "properties": {
        "name": "Century Road Last Stop",
        "address": "JV5V+P33, Accra",
        "id": 76
      },
      "geometry": {
        "type": "Point",
        "coordinates": [
          -0.1073175,
          5.6092714
        ]
      }
    },
    {
      "type": "Feature",
      "properties": {
        "name": "Adom Arakwa Adogon",
        "address": "JW74+V84, Accra",
        "id": 77
      },
      "geometry": {
        "type": "Point",
        "coordinates": [
          -0.0941589,
          5.6146431
        ]
      }
    },
    {
      "type": "Feature",
      "properties": {
        "name": "MICTECH",
        "address": "Taxi rank, Kofi Annan St, Accra",
        "id": 78
      },
      "geometry": {
        "type": "Point",
        "coordinates": [
          -0.1828084,
          5.6162785
        ]
      }
    },
    {
      "type": "Feature",
      "properties": {
        "name": "Shoprite Accra Mall",
        "address": "Tetteh Quarshie Ave, Accra",
        "id": 79
      },
      "geometry": {
        "type": "Point",
        "coordinates": [
          -0.1736,
          5.62142
        ]
      }
    },
    {
      "type": "Feature",
      "properties": {
        "name": "Ablazaa taxi rank",
        "address": "JV8G+W32, Complex Avenue, Agblezaa - Manet Rd, Accra",
        "id": 80
      },
      "geometry": {
        "type": "Point",
        "coordinates": [
          -0.1248564,
          5.6172539
        ]
      }
    },
    {
      "type": "Feature",
      "properties": {
        "name": "A-Z Preparatory & J.H. School",
        "address": "Malik Taxi Rank, Accra",
        "id": 81
      },
      "geometry": {
        "type": "Point",
        "coordinates": [
          -0.1140903,
          5.6183769
        ]
      }
    },
    {
      "type": "Feature",
      "properties": {
        "name": "Vivi\u2019s Place, Malik Taxi Rank",
        "address": "JV9M+H5C, Accra",
        "id": 82
      },
      "geometry": {
        "type": "Point",
        "coordinates": [
          -0.1161125,
          5.6183899
        ]
      }
    },
    {
      "type": "Feature",
      "properties": {
        "name": "Greda Taxi Rank",
        "address": "JV9X+MG2, 10th Ave, Accra",
        "id": 83
      },
      "geometry": {
        "type": "Point",
        "coordinates": [
          -0.1012493,
          5.6191078
        ]
      }
    },
    {
      "type": "Feature",
      "properties": {
        "name": "Railway Taxi Station",
        "address": "JWC7+VF2, Accra",
        "id": 84
      },
      "geometry": {
        "type": "Point",
        "coordinates": [
          -0.0863581,
          5.6221327
        ]
      }
    },
    {
      "type": "Feature",
      "properties": {
        "name": "Nkum's X-Ray And Scan Centre",
        "address": "near Kingsby Taxi Rank, New Achimota, Accra",
        "id": 85
      },
      "geometry": {
        "type": "Point",
        "coordinates": [
          -0.234345,
          5.612781
        ]
      }
    },
    {
      "type": "Feature",
      "properties": {
        "name": "Shiashi Bus Stop Foot Bridge",
        "address": "JRHF+4CM Hav Motors, Boundary Road Shiashi Bus stop Foot Bridge, Accra",
        "id": 86
      },
      "geometry": {
        "type": "Point",
        "coordinates": [
          -0.176462,
          5.6278399
        ]
      }
    },
    {
      "type": "Feature",
      "properties": {
        "name": "Okpoi Gonno Taxi Rank speedaf",
        "address": "About 1000 metres from the, Spintex Rd, Accra",
        "id": 87
      },
      "geometry": {
        "type": "Point",
        "coordinates": [
          -0.1080394,
          5.6260838
        ]
      }
    },
    {
      "type": "Feature",
      "properties": {
        "name": "O'Reilly Taxi Rank",
        "address": "JVGP+C5X, Accra",
        "id": 88
      },
      "geometry": {
        "type": "Point",
        "coordinates": [
          -0.114532,
          5.6261979
        ]
      }
    },
    {
      "type": "Feature",
      "properties": {
        "name": "A Sisters Guest House",
        "address": "JVGR+VJP, Okpoi Gonno Taxi Rank, Spintex Road, costal road,O'ralley S.H.S, Accra",
        "id": 89
      },
      "geometry": {
        "type": "Point",
        "coordinates": [
          -0.1084263,
          5.6272178
        ]
      }
    },
    {
      "type": "Feature",
      "properties": {
        "name": "Coastal Estate Junction Taxi Rank",
        "address": "JVMX+XPH, Coastal Main Rd, Accra",
        "id": 90
      },
      "geometry": {
        "type": "Point",
        "coordinates": [
          -0.1006351,
          5.6349435
        ]
      }
    },
    {
      "type": "Feature",
      "properties": {
        "name": "BKN Modern Furnitures Ltd",
        "address": "Taxi Rank Close to Voltic Pure Water Factory, Spintex Rd, Accra",
        "id": 91
      },
      "geometry": {
        "type": "Point",
        "coordinates": [
          -0.1068339,
          5.6278435
        ]
      }
    },
    {
      "type": "Feature",
      "properties": {
        "name": "Queen Esther's Ointment",
        "address": "taxi rank speedaf, Accra",
        "id": 92
      },
      "geometry": {
        "type": "Point",
        "coordinates": [
          -0.1080312,
          5.6261387
        ]
      }
    },
    {
      "type": "Feature",
      "properties": {
        "name": "Legon Taxi Station",
        "address": "JRRC+9CM, Accra",
        "id": 93
      },
      "geometry": {
        "type": "Point",
        "coordinates": [
          -0.178952,
          5.6409599
        ]
      }
    },
    {
      "type": "Feature",
      "properties": {
        "name": "Okponglo Bus Stop",
        "address": "Accra",
        "id": 94
      },
      "geometry": {
        "type": "Point",
        "coordinates": [
          -0.178116,
          5.6416841
        ]
      }
    },
    {
      "type": "Feature",
      "properties": {
        "name": "Achimota Bus Stop - Legon Campus",
        "address": "JRV7+GG7, Noguchie Link, Accra",
        "id": 95
      },
      "geometry": {
        "type": "Point",
        "coordinates": [
          -0.186202,
          5.6437951
        ]
      }
    },
    {
      "type": "Feature",
      "properties": {
        "name": "Okponglo Bus Stop",
        "address": "Legon E Rd, Accra",
        "id": 96
      },
      "geometry": {
        "type": "Point",
        "coordinates": [
          -0.17815,
          5.6397935
        ]
      }
    },
    {
      "type": "Feature",
      "properties": {
        "name": "YPT Ghana",
        "address": "Okponglo Taxi Rank, Accra",
        "id": 97
      },
      "geometry": {
        "type": "Point",
        "coordinates": [
          -0.1775614,
          5.6405338
        ]
      }
    },
    {
      "type": "Feature",
      "properties": {
        "name": "BRUKU KEYS CUTTING & PROGRAMMING KEYS,ECU,REPAIR AND ALL (EAST LEGON BRANCH)",
        "address": "Okponglo taxi Rank, Accra",
        "id": 98
      },
      "geometry": {
        "type": "Point",
        "coordinates": [
          -0.1761314,
          5.6408827
        ]
      }
    },
    {
      "type": "Feature",
      "properties": {
        "name": "Edwom Express",
        "address": "Okponglo Taxi Rank",
        "id": 99
      },
      "geometry": {
        "type": "Point",
        "coordinates": [
          -0.1772687,
          5.6403272
        ]
      }
    },
    {
      "type": "Feature",
      "properties": {
        "name": "Supreme Hostel",
        "address": "Okponglo Taxi Rank, Accra",
        "id": 100
      },
      "geometry": {
        "type": "Point",
        "coordinates": [
          -0.1764931,
          5.6409669
        ]
      }
    },
    {
      "type": "Feature",
      "properties": {
        "name": "Sargent waiting agency gh",
        "address": "Okponglo taxi rank, Accra",
        "id": 101
      },
      "geometry": {
        "type": "Point",
        "coordinates": [
          -0.161359,
          5.635828
        ]
      }
    },
    {
      "type": "Feature",
      "properties": {
        "name": "Shaxi Ghana Official (Shatta Taxi)",
        "address": "Accra",
        "id": 102
      },
      "geometry": {
        "type": "Point",
        "coordinates": [
          -0.1266064,
          5.6376136
        ]
      }
    },
    {
      "type": "Feature",
      "properties": {
        "name": "Breakilicious Jamaican Street Food Restaurants",
        "address": "Taxi Rank, JVGR+G9X Accra Hydraform Estates, Okpoi Gonno, Accra",
        "id": 103
      },
      "geometry": {
        "type": "Point",
        "coordinates": [
          -0.1090625,
          5.6263125
        ]
      }
    },
    {
      "type": "Feature",
      "properties": {
        "name": "Bubbles Laundromat & Cleaning Services",
        "address": "Taxi Rank, Spintex",
        "id": 104
      },
      "geometry": {
        "type": "Point",
        "coordinates": [
          -0.1080719,
          5.6262532
        ]
      }
    },
    {
      "type": "Feature",
      "properties": {
        "name": "Heritage Investments Hotel",
        "address": "Aviation Highway, Spintex Rd, Accra",
        "id": 105
      },
      "geometry": {
        "type": "Point",
        "coordinates": [
          -0.105431,
          5.6370449
        ]
      }
    },
    {
      "type": "Feature",
      "properties": {
        "name": "Legon Taxi Stand",
        "address": "JRXC+Q6P, Legon E Rd, Accra",
        "id": 106
      },
      "geometry": {
        "type": "Point",
        "coordinates": [
          -0.1794245,
          5.6494647
        ]
      }
    },
    {
      "type": "Feature",
      "properties": {
        "name": "JobHouse HR Outsourcing Company (Ghana)",
        "address": "Opposite Okponglo Taxi Rank",
        "id": 107
      },
      "geometry": {
        "type": "Point",
        "coordinates": [
          -0.1762356,
          5.6410172
        ]
      }
    },
    {
      "type": "Feature",
      "properties": {
        "name": "Diaspora Network Television (DNT)",
        "address": "Opposite Blue Gate Taxi Rank, No.10 Nii Sai Rd, Accra",
        "id": 108
      },
      "geometry": {
        "type": "Point",
        "coordinates": [
          -0.1605244,
          5.649275
        ]
      }
    },
    {
      "type": "Feature",
      "properties": {
        "name": "Frimps Oil, SPINTEX",
        "address": "87 Spintex Rd, Accra",
        "id": 109
      },
      "geometry": {
        "type": "Point",
        "coordinates": [
          -0.1262848,
          5.6375226
        ]
      }
    },
    {
      "type": "Feature",
      "properties": {
        "name": "Taxi Rank",
        "address": "MR79+2CF, Unnamed Road, Accra",
        "id": 110
      },
      "geometry": {
        "type": "Point",
        "coordinates": [
          -0.1814384,
          5.6625652
        ]
      }
    }
  ]
}