{
  "type": "FeatureCollection",
  "features": [
    {
      "type": "Feature",
      "geometry": {
        "type": "Point",
        "coordinates": [
          -0.12260960000000001,
          5.595333600000004
        ]
      },
      "properties": {
        "facility_id": 9,
        "type": "facility",
        "posts": 4
      }
    },
    {
      "type": "Feature",
      "geometry": {
        "type": "Point",
        "coordinates": [
          -0.17816839999999998,
          5.640475899999998
        ]
      },
      "properties": {
        "facility_id": 0,
        "type": "facility",
        "posts": 2
      }
    },
    {
      "type": "Feature",
      "geometry": {
        "type": "Point",
        "coordinates": [
          -0.10837200000000001,
          5.626270700000006
        ]
      },
      "properties": {
        "facility_id": 1,
        "type": "facility",
        "posts": 2
      }
    },
    {
      "type": "Feature",
      "geometry": {
        "type": "Point",
        "coordinates": [
          -0.18660829999999998,
          5.6041667000000075
        ]
      },
      "properties": {
        "facility_id": 3,
        "type": "facility",
        "posts": "4"
      }
    },
    {
      "type": "Feature",
      "geometry": {
        "type": "Point",
        "coordinates": [
          -0.2170756,
          5.605556199999995
        ]
      },
      "properties": {
        "facility_id": 6,
        "type": "facility",
        "posts": 2
      }
    },
    {
      "type": "Feature",
      "geometry": {
        "type": "Point",
        "coordinates": [
          -0.2538678,
          5.5500008000000065
        ]
      },
      "properties": {
        "facility_id": 2,
        "type": "facility",
        "posts": "4"
      }
    },
    {
      "type": "Feature",
      "geometry": {
        "type": "Point",
        "coordinates": [
          -0.1785721,
          5.576499299999995
        ]
      },
      "properties": {
        "facility_id": 4,
        "type": "facility",
        "posts": "4"
      }
    },
    {
      "type": "Feature",
      "geometry": {
        "type": "Point",
        "coordinates": [
          -0.2588359,
          5.594992499999989
        ]
      },
      "properties": {
        "facility_id": 8,
        "type": "facility",
        "posts": "4"
      }
    },
    {
      "type": "Feature",
      "geometry": {
        "type": "Point",
        "coordinates": [
          -0.08867919999999999,
          5.594008099999996
        ]
      },
      "properties": {
        "facility_id": 7,
        "type": "facility",
        "posts": 2
      }
    },
    {
      "type": "Feature",
      "geometry": {
        "type": "Point",
        "coordinates": [
          -0.2148584,
          5.566669100000013
        ]
      },
      "properties": {
        "facility_id": 5,
        "type": "facility",
        "posts": "4"
      }
    }
  ]
}