{
  "type": "FeatureCollection",
  "features": [
    {
      "type": "Feature",
      "properties": {},
      "geometry": {
        "type": "Polygon",
        "coordinates": [
          [
            [
              37.131217,
              -1.540137
            ],
            [
              37.130716,
              -1.540171
            ],
            [
              37.130213,
              -1.540176
            ],
            [
              37.129711,
              -1.540153
            ],
            [
              36.94785,
              -1.526717
            ],
            [
              36.947452,
              -1.526679
            ],
            [
              36.947056,
              -1.526623
            ],
            [
              36.750055,
              -1.494143
            ],
            [
              36.749637,
              -1.494064
            ],
            [
              36.749223,
              -1.493965
            ],
            [
              36.748815,
              -1.493846
            ],
            [
              36.748412,
              -1.493708
            ],
            [
              36.748016,
              -1.493551
            ],
            [
              36.747628,
              -1.493375
            ],
            [
              36.747249,
              -1.493181
            ],
            [
              36.746879,
              -1.492969
            ],
            [
              36.74652,
              -1.49274
            ],
            [
              36.743544,
              -1.49074
            ],
            [
              36.743262,
              -1.490543
            ],
            [
              36.679415,
              -1.443985
            ],
            [
              36.678912,
              -1.44359
            ],
            [
              36.656962,
              -1.425055
            ],
            [
              36.656623,
              -1.424754
            ],
            [
              36.656299,
              -1.424435
            ],
            [
              36.655991,
              -1.424101
            ],
            [
              36.655701,
              -1.423752
            ],
            [
              36.655429,
              -1.423388
            ],
            [
              36.655175,
              -1.423011
            ],
            [
              36.65494,
              -1.422622
            ],
            [
              36.577523,
              -1.286549
            ],
            [
              36.577295,
              -1.286122
            ],
            [
              36.57709,
              -1.285683
            ],
            [
              36.576986,
              -1.285444
            ],
            [
              36.576812,
              -1.285014
            ],
            [
              36.574577,
              -1.279063
            ],
            [
              36.57443,
              -1.278638
            ],
            [
              36.574303,
              -1.278207
            ],
            [
              36.574198,
              -1.277769
            ],
            [
              36.574115,
              -1.277327
            ],
            [
              36.574054,
              -1.276881
            ],
            [
              36.574015,
              -1.276433
            ],
            [
              36.573998,
              -1.275983
            ],
            [
              36.574003,
              -1.275533
            ],
            [
              36.57653,
              -1.206622
            ],
            [
              36.576559,
              -1.206166
            ],
            [
              36.57661,
              -1.205712
            ],
            [
              36.576684,
              -1.205261
            ],
            [
              36.586742,
              -1.152201
            ],
            [
              36.586778,
              -1.152021
            ],
            [
              36.617047,
              -1.0082
            ],
            [
              36.617061,
              -1.008134
            ],
            [
              36.617397,
              -1.006594
            ],
            [
              36.617503,
              -1.006159
            ],
            [
              36.61763,
              -1.00573
            ],
            [
              36.617779,
              -1.005307
            ],
            [
              36.617948,
              -1.004893
            ],
            [
              36.618137,
              -1.004487
            ],
            [
              36.618346,
              -1.004092
            ],
            [
              36.618575,
              -1.003707
            ],
            [
              36.618821,
              -1.003334
            ],
            [
              36.619086,
              -1.002974
            ],
            [
              36.619369,
              -1.002628
            ],
            [
              36.619668,
              -1.002296
            ],
            [
              36.619983,
              -1.00198
            ],
            [
              36.620313,
              -1.001679
            ],
            [
              36.620657,
              -1.001396
            ],
            [
              36.621016,
              -1.001129
            ],
            [
              36.621386,
              -1.000882
            ],
            [
              36.621769,
              -1.000652
            ],
            [
              36.622162,
              -1.000443
            ],
            [
              36.622565,
              -1.000253
            ],
            [
              36.622977,
              -1.000083
            ],
            [
              36.623397,
              -0.999935
            ],
            [
              36.623824,
              -0.999807
            ],
            [
              37.220165,
              -0.837389
            ],
            [
              37.220575,
              -0.837288
            ],
            [
              37.22099,
              -0.837206
            ],
            [
              37.221409,
              -0.837144
            ],
            [
              37.22183,
              -0.837101
            ],
            [
              37.222252,
              -0.837079
            ],
            [
              37.222675,
              -0.837077
            ],
            [
              37.223098,
              -0.837094
            ],
            [
              37.223519,
              -0.837132
            ],
            [
              37.243335,
              -0.839382
            ],
            [
              37.243769,
              -0.839442
            ],
            [
              37.2442,
              -0.839523
            ],
            [
              37.244626,
              -0.839626
            ],
            [
              37.245047,
              -0.839749
            ],
            [
              37.245462,
              -0.839893
            ],
            [
              37.245869,
              -0.840057
            ],
            [
              37.246267,
              -0.840241
            ],
            [
              37.250384,
              -0.842263
            ],
            [
              37.250862,
              -0.842516
            ],
            [
              37.262503,
              -0.849133
            ],
            [
              37.262886,
              -0.849364
            ],
            [
              37.263257,
              -0.849613
            ],
            [
              37.263616,
              -0.849881
            ],
            [
              37.263961,
              -0.850167
            ],
            [
              37.264292,
              -0.850469
            ],
            [
              37.264607,
              -0.850788
            ],
            [
              37.264906,
              -0.851122
            ],
            [
              37.265188,
              -0.851471
            ],
            [
              37.265453,
              -0.851833
            ],
            [
              37.265699,
              -0.852208
            ],
            [
              37.265927,
              -0.852595
            ],
            [
              37.266135,
              -0.852993
            ],
            [
              37.266323,
              -0.8534
            ],
            [
              37.266491,
              -0.853817
            ],
            [
              37.266638,
              -0.854242
            ],
            [
              37.266764,
              -0.854673
            ],
            [
              37.266869,
              -0.85511
            ],
            [
              37.266952,
              -0.855552
            ],
            [
              37.267012,
              -0.855998
            ],
            [
              37.267051,
              -0.856446
            ],
            [
              37.267068,
              -0.856895
            ],
            [
              37.275093,
              -1.517851
            ],
            [
              37.275087,
              -1.518301
            ],
            [
              37.275059,
              -1.51875
            ],
            [
              37.275009,
              -1.519197
            ],
            [
              37.274937,
              -1.519641
            ],
            [
              37.274843,
              -1.520081
            ],
            [
              37.274727,
              -1.520516
            ],
            [
              37.27459,
              -1.520944
            ],
            [
              37.274433,
              -1.521365
            ],
            [
              37.274254,
              -1.521777
            ],
            [
              37.274055,
              -1.52218
            ],
            [
              37.273837,
              -1.522573
            ],
            [
              37.273599,
              -1.522954
            ],
            [
              37.273343,
              -1.523323
            ],
            [
              37.273069,
              -1.523678
            ],
            [
              37.272778,
              -1.52402
            ],
            [
              37.27247,
              -1.524346
            ],
            [
              37.272147,
              -1.524657
            ],
            [
              37.271808,
              -1.524951
            ],
            [
              37.271456,
              -1.525227
            ],
            [
              37.27109,
              -1.525486
            ],
            [
              37.270712,
              -1.525726
            ],
            [
              37.270322,
              -1.525947
            ],
            [
              37.269922,
              -1.526148
            ],
            [
              37.269513,
              -1.526329
            ],
            [
              37.269095,
              -1.526489
            ],
            [
              37.26867,
              -1.526628
            ],
            [
              37.268238,
              -1.526745
            ],
            [
              37.267801,
              -1.526841
            ],
            [
              37.265771,
              -1.527233
            ],
            [
              37.265351,
              -1.527304
            ],
            [
              37.264928,
              -1.527355
            ],
            [
              37.131217,
              -1.540137
            ]
          ]
        ]
      }
    }
  ]
}
